ORBCOMM FM05            
1 25117U 97084F   25364.80287122  .00003462  00000+0  98622-3 0  9998
2 25117  45.0123 143.4804 0003093 153.4355 206.6656 14.46775780469074
ORBCOMM FM06            
1 25118U 97084G   25364.36435819  .00003582  00000+0  10159-2 0  9999
2 25118  45.0116 145.0896 0002068 162.2293 218.3144 14.46935881469933
ORBCOMM FM07            
1 25119U 97084H   25364.44167761  .00003056  00000+0  87221-3 0  9998
2 25119  45.0092 145.4638 0003751 142.6964 217.4149 14.46950863469934
ORBCOMM FM03            
1 25158U 98007B   25365.29883390  .00002959  00000+0  10680-2 0  9999
2 25158 107.9635 180.6557 0046863 263.9217  95.6582 14.35089053452311
ORBCOMM FM04            
1 25159U 98007C   25365.24938500  .00002590  00000+0  93798-3 0  9992
2 25159 107.9628 183.9097 0042621 261.3661  98.2649 14.35330926452492
ORBCOMM FM17            
1 25413U 98046A   25365.16957917  .00001670  00000+0  62285-3 0  9997
2 25413  44.9951  47.6303 0002010 176.3725 183.7137 14.35582354431475
ORBCOMM FM18            
1 25414U 98046B   25364.56774176  .00002659  00000+0  89506-3 0  9998
2 25414  44.9934 322.5132 0004087 219.7969 140.2580 14.39211158432533
ORBCOMM FM19            
1 25415U 98046C   25365.26121500  .00002753  00000+0  92848-3 0  9992
2 25415  44.9945 321.5187 0002899 227.7429 272.3100 14.39036838432584
