<?xml version="1.0" encoding="UTF-8"?>
<ndm xmlns:xsi="http://www.w3.org/2001/XMLSchema-instance" xsi:noNamespaceSchemaLocation="https://sanaregistry.org/r/ndmxml_unqualified/ndmxml-2.0.0-master-2.0.xsd">
<omm id="CCSDS_OMM_VERS" version="2.0">
<header><CREATION_DATE/><ORIGINATOR/></header><body><segment><metadata><OBJECT_NAME>ORBCOMM FM05</OBJECT_NAME><OBJECT_ID>1997-084F</OBJECT_ID><CENTER_NAME>EARTH</CENTER_NAME><REF_FRAME>TEME</REF_FRAME><TIME_SYSTEM>UTC</TIME_SYSTEM><MEAN_ELEMENT_THEORY>SGP4</MEAN_ELEMENT_THEORY></metadata><data><meanElements><EPOCH>2025-12-30T19:16:08.073408</EPOCH><MEAN_MOTION>14.46775780</MEAN_MOTION><ECCENTRICITY>.00030935</ECCENTRICITY><INCLINATION>45.0123</INCLINATION><RA_OF_ASC_NODE>143.4804</RA_OF_ASC_NODE><ARG_OF_PERICENTER>153.4355</ARG_OF_PERICENTER><MEAN_ANOMALY>206.6656</MEAN_ANOMALY></meanElements><tleParameters><EPHEMERIS_TYPE>0</EPHEMERIS_TYPE><CLASSIFICATION_TYPE>U</CLASSIFICATION_TYPE><NORAD_CAT_ID>25117</NORAD_CAT_ID><ELEMENT_SET_NO>999</ELEMENT_SET_NO><REV_AT_EPOCH>46907</REV_AT_EPOCH><BSTAR>.98622119E-3</BSTAR><MEAN_MOTION_DOT>.3462E-4</MEAN_MOTION_DOT><MEAN_MOTION_DDOT>0</MEAN_MOTION_DDOT></tleParameters></data></segment></body></omm>
<omm id="CCSDS_OMM_VERS" version="2.0">
<header><CREATION_DATE/><ORIGINATOR/></header><body><segment><metadata><OBJECT_NAME>ORBCOMM FM06</OBJECT_NAME><OBJECT_ID>1997-084G</OBJECT_ID><CENTER_NAME>EARTH</CENTER_NAME><REF_FRAME>TEME</REF_FRAME><TIME_SYSTEM>UTC</TIME_SYSTEM><MEAN_ELEMENT_THEORY>SGP4</MEAN_ELEMENT_THEORY></metadata><data><meanElements><EPOCH>2025-12-30T08:44:40.547616</EPOCH><MEAN_MOTION>14.46935881</MEAN_MOTION><ECCENTRICITY>.00020681</ECCENTRICITY><INCLINATION>45.0116</INCLINATION><RA_OF_ASC_NODE>145.0896</RA_OF_ASC_NODE><ARG_OF_PERICENTER>162.2293</ARG_OF_PERICENTER><MEAN_ANOMALY>218.3144</MEAN_ANOMALY></meanElements><tleParameters><EPHEMERIS_TYPE>0</EPHEMERIS_TYPE><CLASSIFICATION_TYPE>U</CLASSIFICATION_TYPE><NORAD_CAT_ID>25118</NORAD_CAT_ID><ELEMENT_SET_NO>999</ELEMENT_SET_NO><REV_AT_EPOCH>46993</REV_AT_EPOCH><BSTAR>.10159247E-2</BSTAR><MEAN_MOTION_DOT>.3582E-4</MEAN_MOTION_DOT><MEAN_MOTION_DDOT>0</MEAN_MOTION_DDOT></tleParameters></data></segment></body></omm>
<omm id="CCSDS_OMM_VERS" version="2.0">
<header><CREATION_DATE/><ORIGINATOR/></header><body><segment><metadata><OBJECT_NAME>ORBCOMM FM07</OBJECT_NAME><OBJECT_ID>1997-084H</OBJECT_ID><CENTER_NAME>EARTH</CENTER_NAME><REF_FRAME>TEME</REF_FRAME><TIME_SYSTEM>UTC</TIME_SYSTEM><MEAN_ELEMENT_THEORY>SGP4</MEAN_ELEMENT_THEORY></metadata><data><meanElements><EPOCH>2025-12-30T10:36:00.945504</EPOCH><MEAN_MOTION>14.46950863</MEAN_MOTION><ECCENTRICITY>.00037518</ECCENTRICITY><INCLINATION>45.0092</INCLINATION><RA_OF_ASC_NODE>145.4638</RA_OF_ASC_NODE><ARG_OF_PERICENTER>142.6964</ARG_OF_PERICENTER><MEAN_ANOMALY>217.4149</MEAN_ANOMALY></meanElements><tleParameters><EPHEMERIS_TYPE>0</EPHEMERIS_TYPE><CLASSIFICATION_TYPE>U</CLASSIFICATION_TYPE><NORAD_CAT_ID>25119</NORAD_CAT_ID><ELEMENT_SET_NO>999</ELEMENT_SET_NO><REV_AT_EPOCH>46993</REV_AT_EPOCH><BSTAR>.8722079E-3</BSTAR><MEAN_MOTION_DOT>.3056E-4</MEAN_MOTION_DOT><MEAN_MOTION_DDOT>0</MEAN_MOTION_DDOT></tleParameters></data></segment></body></omm>
<omm id="CCSDS_OMM_VERS" version="2.0">
<header><CREATION_DATE/><ORIGINATOR/></header><body><segment><metadata><OBJECT_NAME>ORBCOMM FM03</OBJECT_NAME><OBJECT_ID>1998-007B</OBJECT_ID><CENTER_NAME>EARTH</CENTER_NAME><REF_FRAME>TEME</REF_FRAME><TIME_SYSTEM>UTC</TIME_SYSTEM><MEAN_ELEMENT_THEORY>SGP4</MEAN_ELEMENT_THEORY></metadata><data><meanElements><EPOCH>2025-12-31T07:10:19.248960</EPOCH><MEAN_MOTION>14.35089053</MEAN_MOTION><ECCENTRICITY>.0046863</ECCENTRICITY><INCLINATION>107.9635</INCLINATION><RA_OF_ASC_NODE>180.6557</RA_OF_ASC_NODE><ARG_OF_PERICENTER>263.9217</ARG_OF_PERICENTER><MEAN_ANOMALY>95.6582</MEAN_ANOMALY></meanElements><tleParameters><EPHEMERIS_TYPE>0</EPHEMERIS_TYPE><CLASSIFICATION_TYPE>U</CLASSIFICATION_TYPE><NORAD_CAT_ID>25158</NORAD_CAT_ID><ELEMENT_SET_NO>999</ELEMENT_SET_NO><REV_AT_EPOCH>45231</REV_AT_EPOCH><BSTAR>.10679603E-2</BSTAR><MEAN_MOTION_DOT>.2959E-4</MEAN_MOTION_DOT><MEAN_MOTION_DDOT>0</MEAN_MOTION_DDOT></tleParameters></data></segment></body></omm>
<omm id="CCSDS_OMM_VERS" version="2.0">
<header><CREATION_DATE/><ORIGINATOR/></header><body><segment><metadata><OBJECT_NAME>ORBCOMM FM04</OBJECT_NAME><OBJECT_ID>1998-007C</OBJECT_ID><CENTER_NAME>EARTH</CENTER_NAME><REF_FRAME>TEME</REF_FRAME><TIME_SYSTEM>UTC</TIME_SYSTEM><MEAN_ELEMENT_THEORY>SGP4</MEAN_ELEMENT_THEORY></metadata><data><meanElements><EPOCH>2025-12-31T05:59:06.864000</EPOCH><MEAN_MOTION>14.35330926</MEAN_MOTION><ECCENTRICITY>.00426211</ECCENTRICITY><INCLINATION>107.9628</INCLINATION><RA_OF_ASC_NODE>183.9097</RA_OF_ASC_NODE><ARG_OF_PERICENTER>261.3661</ARG_OF_PERICENTER><MEAN_ANOMALY>98.2649</MEAN_ANOMALY></meanElements><tleParameters><EPHEMERIS_TYPE>0</EPHEMERIS_TYPE><CLASSIFICATION_TYPE>U</CLASSIFICATION_TYPE><NORAD_CAT_ID>25159</NORAD_CAT_ID><ELEMENT_SET_NO>999</ELEMENT_SET_NO><REV_AT_EPOCH>45249</REV_AT_EPOCH><BSTAR>.93798348E-3</BSTAR><MEAN_MOTION_DOT>.259E-4</MEAN_MOTION_DOT><MEAN_MOTION_DDOT>0</MEAN_MOTION_DDOT></tleParameters></data></segment></body></omm>
<omm id="CCSDS_OMM_VERS" version="2.0">
<header><CREATION_DATE/><ORIGINATOR/></header><body><segment><metadata><OBJECT_NAME>ORBCOMM FM17</OBJECT_NAME><OBJECT_ID>1998-046A</OBJECT_ID><CENTER_NAME>EARTH</CENTER_NAME><REF_FRAME>TEME</REF_FRAME><TIME_SYSTEM>UTC</TIME_SYSTEM><MEAN_ELEMENT_THEORY>SGP4</MEAN_ELEMENT_THEORY></metadata><data><meanElements><EPOCH>2025-12-31T04:04:11.640288</EPOCH><MEAN_MOTION>14.35582354</MEAN_MOTION><ECCENTRICITY>.00020105</ECCENTRICITY><INCLINATION>44.9951</INCLINATION><RA_OF_ASC_NODE>47.6303</RA_OF_ASC_NODE><ARG_OF_PERICENTER>176.3725</ARG_OF_PERICENTER><MEAN_ANOMALY>183.7137</MEAN_ANOMALY></meanElements><tleParameters><EPHEMERIS_TYPE>0</EPHEMERIS_TYPE><CLASSIFICATION_TYPE>U</CLASSIFICATION_TYPE><NORAD_CAT_ID>25413</NORAD_CAT_ID><ELEMENT_SET_NO>999</ELEMENT_SET_NO><REV_AT_EPOCH>43147</REV_AT_EPOCH><BSTAR>.62284762E-3</BSTAR><MEAN_MOTION_DOT>.167E-4</MEAN_MOTION_DOT><MEAN_MOTION_DDOT>0</MEAN_MOTION_DDOT></tleParameters></data></segment></body></omm>
<omm id="CCSDS_OMM_VERS" version="2.0">
<header><CREATION_DATE/><ORIGINATOR/></header><body><segment><metadata><OBJECT_NAME>ORBCOMM FM18</OBJECT_NAME><OBJECT_ID>1998-046B</OBJECT_ID><CENTER_NAME>EARTH</CENTER_NAME><REF_FRAME>TEME</REF_FRAME><TIME_SYSTEM>UTC</TIME_SYSTEM><MEAN_ELEMENT_THEORY>SGP4</MEAN_ELEMENT_THEORY></metadata><data><meanElements><EPOCH>2025-12-30T13:37:32.888064</EPOCH><MEAN_MOTION>14.39211158</MEAN_MOTION><ECCENTRICITY>.0004087</ECCENTRICITY><INCLINATION>44.9934</INCLINATION><RA_OF_ASC_NODE>322.5132</RA_OF_ASC_NODE><ARG_OF_PERICENTER>219.7969</ARG_OF_PERICENTER><MEAN_ANOMALY>140.2580</MEAN_ANOMALY></meanElements><tleParameters><EPHEMERIS_TYPE>0</EPHEMERIS_TYPE><CLASSIFICATION_TYPE>U</CLASSIFICATION_TYPE><NORAD_CAT_ID>25414</NORAD_CAT_ID><ELEMENT_SET_NO>999</ELEMENT_SET_NO><REV_AT_EPOCH>43253</REV_AT_EPOCH><BSTAR>.89506E-3</BSTAR><MEAN_MOTION_DOT>.2659E-4</MEAN_MOTION_DOT><MEAN_MOTION_DDOT>0</MEAN_MOTION_DDOT></tleParameters></data></segment></body></omm>
<omm id="CCSDS_OMM_VERS" version="2.0">
<header><CREATION_DATE/><ORIGINATOR/></header><body><segment><metadata><OBJECT_NAME>ORBCOMM FM19</OBJECT_NAME><OBJECT_ID>1998-046C</OBJECT_ID><CENTER_NAME>EARTH</CENTER_NAME><REF_FRAME>TEME</REF_FRAME><TIME_SYSTEM>UTC</TIME_SYSTEM><MEAN_ELEMENT_THEORY>SGP4</MEAN_ELEMENT_THEORY></metadata><data><meanElements><EPOCH>2025-12-31T06:16:08.976000</EPOCH><MEAN_MOTION>14.39036838</MEAN_MOTION><ECCENTRICITY>.00028996</ECCENTRICITY><INCLINATION>44.9945</INCLINATION><RA_OF_ASC_NODE>321.5187</RA_OF_ASC_NODE><ARG_OF_PERICENTER>227.7429</ARG_OF_PERICENTER><MEAN_ANOMALY>272.3100</MEAN_ANOMALY></meanElements><tleParameters><EPHEMERIS_TYPE>0</EPHEMERIS_TYPE><CLASSIFICATION_TYPE>U</CLASSIFICATION_TYPE><NORAD_CAT_ID>25415</NORAD_CAT_ID><ELEMENT_SET_NO>999</ELEMENT_SET_NO><REV_AT_EPOCH>43258</REV_AT_EPOCH><BSTAR>.92848393E-3</BSTAR><MEAN_MOTION_DOT>.2753E-4</MEAN_MOTION_DOT><MEAN_MOTION_DDOT>0</MEAN_MOTION_DDOT></tleParameters></data></segment></body></omm>

</ndm>
